STARLINK-2472
1 18130C 21027AQ  21326.17847539  .00003044  00000-0  20397-3 0  3265
2 18130  53.0543  17.9462 0001525  67.5021  88.3929 15.06395533    11
